H1 CPF  1  DLR 2022 06 27 10  6782 technosat            
H2  1704205 6203    42829 2022 06 27 00 00 00 2022 07 04 00 00 00    60 1 1  0 0 0
H9
10 0 59758      0.000000  0       -990789.313        -28143.255      -6902985.233
10 0 59758     60.000000  0      -1185141.448        383326.811      -6861089.782
10 0 59758    120.000000  0      -1370927.454        794854.270      -6790242.141
10 0 59758    180.000000  0      -1547374.400       1204635.653      -6690730.934
10 0 59758    240.000000  0      -1713763.406       1610866.805      -6562964.628
10 0 59758    300.000000  0      -1869432.584       2011750.634      -6407470.164
10 0 59758    360.000000  0      -2013779.747       2405505.028      -6224891.184
10 0 59758    420.000000  0      -2146264.834       2790370.825      -6015985.651
10 0 59758    480.000000  0      -2266411.966       3164619.671      -5781622.987
10 0 59758    540.000000  0      -2373811.221       3526561.833      -5522780.857
10 0 59758    600.000000  0      -2468120.132       3874554.002      -5240541.456
10 0 59758    660.000000  0      -2549064.859       4207006.957      -4936087.280
10 0 59758    720.000000  0      -2616441.005       4522393.076      -4610696.434
10 0 59758    780.000000  0      -2670114.076       4819253.612      -4265737.472
10 0 59758    840.000000  0      -2710019.584       5096205.716      -3902663.787
10 0 59758    900.000000  0      -2736162.779       5351949.107      -3523007.644
10 0 59758    960.000000  0      -2748618.048       5585272.491      -3128373.919
10 0 59758   1020.000000  0      -2747527.984       5795059.721      -2720433.401
10 0 59758   1080.000000  0      -2733102.110       5980295.528      -2300915.711
10 0 59758   1140.000000  0      -2705615.222       6140070.810      -1871601.812
10 0 59758   1200.000000  0      -2665405.348       6273587.321      -1434316.253
10 0 59758   1260.000000  0      -2612871.441       6380161.856       -990919.282
10 0 59758   1320.000000  0      -2548470.764       6459229.946       -543298.780
10 0 59758   1380.000000  0      -2472715.996       6510349.156        -93362.054
10 0 59758   1440.000000  0      -2386172.044       6533201.777        356972.752
10 0 59758   1500.000000  0      -2289452.502       6527596.743        805785.306
10 0 59758   1560.000000  0      -2183215.835       6493470.831       1251161.734
10 0 59758   1620.000000  0      -2068161.357       6430889.198       1691203.119
10 0 59758   1680.000000  0      -1945025.031       6340045.339       2124033.904
10 0 59758   1740.000000  0      -1814575.111       6221260.400       2547810.174
10 0 59758   1800.000000  0      -1677607.652       6074981.847       2960727.738
10 0 59758   1860.000000  0      -1534941.932       5901781.571       3361029.981
10 0 59758   1920.000000  0      -1387415.799       5702353.404       3747015.522
10 0 59758   1980.000000  0      -1235880.989       5477510.003       4117045.551
10 0 59758   2040.000000  0      -1081198.416       5228179.244       4469550.926
10 0 59758   2100.000000  0       -924233.353       4955399.921       4803038.917
10 0 59758   2160.000000  0       -765850.651       4660316.929       5116099.356
10 0 59758   2220.000000  0       -606910.128       4344176.169       5407410.374
10 0 59758   2280.000000  0       -448262.079       4008319.023       5675743.888
10 0 59758   2340.000000  0       -290742.849       3654176.307       5919970.668
10 0 59758   2400.000000  0       -135170.530       3283261.786       6139064.858
10 0 59758   2460.000000  0         17659.171       2897165.445       6332107.947
10 0 59758   2520.000000  0        166976.876       2497546.519       6498292.371
10 0 59758   2580.000000  0        312043.319       2086126.194       6636924.662
10 0 59758   2640.000000  0        452152.922       1664680.033       6747428.094
10 0 59758   2700.000000  0        586637.131       1235030.184       6829344.796
10 0 59758   2760.000000  0        714867.512        799037.489       6882337.365
10 0 59758   2820.000000  0        836258.617        358593.483       6906190.058
10 0 59758   2880.000000  0        950270.598        -84387.744       6900809.575
10 0 59758   2940.000000  0       1056411.538       -527977.856       6866225.371
10 0 59758   3000.000000  0       1154239.539       -970242.665       6802589.403
10 0 59758   3060.000000  0       1243364.535      -1409250.456       6710175.395
10 0 59758   3120.000000  0       1323449.793      -1843080.360       6589377.724
10 0 59758   3180.000000  0       1394213.158      -2269830.735       6440709.786
10 0 59758   3240.000000  0       1455428.007      -2687627.468       6264801.881
10 0 59758   3300.000000  0       1506923.878      -3094632.224       6062398.648
10 0 59758   3360.000000  0       1548586.793      -3489050.530       5834355.996
10 0 59758   3420.000000  0       1580359.317      -3869139.666       5581637.594
10 0 59758   3480.000000  0       1602240.335      -4233216.350       5305310.948
10 0 59758   3540.000000  0       1614284.543      -4579664.225       5006543.118
10 0 59758   3600.000000  0       1616601.654      -4906941.167       4686596.022
10 0 59758   3660.000000  0       1609355.309      -5213586.352       4346821.309
10 0 59758   3720.000000  0       1592761.720      -5498227.028       3988654.746
10 0 59758   3780.000000  0       1567088.002      -5759584.834       3613610.173
10 0 59758   3840.000000  0       1532650.228      -5996481.682       3223273.146
10 0 59758   3900.000000  0       1489811.227      -6207845.226       2819294.298
10 0 59758   3960.000000  0       1438978.163      -6392713.909       2403382.425
10 0 59758   4020.000000  0       1380599.876      -6550241.572       1977297.272
10 0 59758   4080.000000  0       1315163.957      -6679701.542       1542842.048
10 0 59758   4140.000000  0       1243193.665      -6780490.153       1101855.708
10 0 59758   4200.000000  0       1165244.662      -6852129.695        656205.060
10 0 59758   4260.000000  0       1081901.537      -6894270.879        207776.750
10 0 59758   4320.000000  0        993774.116      -6906694.627       -241531.022
10 0 59758   4380.000000  0        901493.687      -6889313.113       -689816.755
10 0 59758   4440.000000  0        805709.153      -6842170.197      -1135183.876
10 0 59758   4500.000000  0        707083.114      -6765441.210      -1575748.891
10 0 59758   4560.000000  0        606287.895      -6659432.160      -2009649.443
10 0 59758   4620.000000  0        504001.567      -6524578.367      -2435052.268
10 0 59758   4680.000000  0        400903.947      -6361442.492      -2850161.013
10 0 59758   4740.000000  0        297672.620      -6170711.991      -3253223.873
10 0 59758   4800.000000  0        194978.989      -5953195.974      -3642541.022
10 0 59758   4860.000000  0         93484.388      -5709821.478      -4016471.771
10 0 59758   4920.000000  0         -6163.724      -5441629.204      -4373441.389
10 0 59758   4980.000000  0       -103335.449      -5149768.796      -4711947.571
10 0 59758   5040.000000  0       -197422.002      -4835493.701      -5030566.594
10 0 59758   5100.000000  0       -287839.135      -4500155.570      -5327959.142
10 0 59758   5160.000000  0       -374030.385      -4145198.233      -5602875.724
10 0 59758   5220.000000  0       -455470.139      -3772151.310      -5854161.681
10 0 59758   5280.000000  0       -531666.492      -3382623.508      -6080761.787
10 0 59758   5340.000000  0       -602163.921      -2978295.599      -6281724.444
10 0 59758   5400.000000  0       -666545.740      -2560913.112      -6456205.427
10 0 59758   5460.000000  0       -724436.322      -2132278.803      -6603471.179
10 0 59758   5520.000000  0       -775503.085      -1694244.940      -6722901.671
10 0 59758   5580.000000  0       -819458.258      -1248705.414      -6813992.866
10 0 59758   5640.000000  0       -856060.381       -797587.649      -6876358.760
10 0 59758   5700.000000  0       -885115.532       -342844.355      -6909732.916
10 0 59758   5760.000000  0       -906478.301        113554.754      -6913969.486
10 0 59758   5820.000000  0       -920052.519        569631.243      -6889043.865
10 0 59758   5880.000000  0       -925791.701       1023406.380      -6835052.973
10 0 59758   5940.000000  0       -923699.241       1472909.610      -6752214.949
10 0 59758   6000.000000  0       -913828.341       1916186.906      -6640868.434
10 0 59758   6060.000000  0       -896281.665       2351309.151      -6501471.471
10 0 59758   6120.000000  0       -871210.682       2776380.500      -6334599.942
10 0 59758   6180.000000  0       -838814.802       3189546.683      -6140945.517
10 0 59758   6240.000000  0       -799340.218       3589003.181      -5921313.072
10 0 59758   6300.000000  0       -753078.452       3973003.166      -5676617.655
10 0 59758   6360.000000  0       -700364.669       4339865.288      -5407881.060
10 0 59758   6420.000000  0       -641575.754       4687981.296      -5116227.904
10 0 59758   6480.000000  0       -577128.140       5015823.392      -4802881.218
10 0 59758   6540.000000  0       -507475.388       5321951.273      -4469157.572
10 0 59758   6600.000000  0       -433105.549       5605018.826      -4116461.754
10 0 59758   6660.000000  0       -354538.297       5863780.434      -3746281.023
10 0 59758   6720.000000  0       -272321.860       6097096.838      -3360178.970
10 0 59758   6780.000000  0       -187029.768       6303940.601      -2959789.027
10 0 59758   6840.000000  0        -99257.422       6483401.083      -2546807.548
10 0 59758   6900.000000  0         -9618.534       6634688.862      -2122986.572
10 0 59758   6960.000000  0         81258.570       6757139.625      -1690126.282
10 0 59758   7020.000000  0        172734.771       6850217.457      -1250067.185
10 0 59758   7080.000000  0        264164.062       6913517.491       -804682.051
10 0 59758   7140.000000  0        354897.508       6946767.940       -355867.696
99
